{"type": "FeatureCollection", "features": [ {"type": "Feature", "properties": {"norad_id": 34529, "name": "IRIDIUM 33 DEB", "group": "iridium-33-debris", "lat": -32.434926349478566, "lon": -141.20703267765532, "alt_km": 759.8887558001097, "timestamp": "2025-12-10T05:46:14.211097+00:00", "meta": {"OBJECT_NAME": "IRIDIUM 33 DEB", "OBJECT_ID": "1997-051HW", "EPOCH": "2025-12-09T03:46:56.686656", "MEAN_MOTION": 14.40611183, "ECCENTRICITY": 0.00043514, "INCLINATION": 86.3644, "RA_OF_ASC_NODE": 36.9388, "ARG_OF_PERICENTER": 189.2574, "MEAN_ANOMALY": 170.8546, "EPHEMERIS_TYPE": 0, "CLASSIFICATION_TYPE": "U", "NORAD_CAT_ID": 34529, "ELEMENT_SET_NO": 999, "REV_AT_EPOCH": 88090, "BSTAR": 0.00017454195, "MEAN_MOTION_DOT": 5.76e-06, "MEAN_MOTION_DDOT": 0}, "tle": {"line1": "1 34529U 97051HW  25343.15760054  .00000576  00000+0  17454-3 0  9991", "line2": "2 34529  86.3644  36.9388 0004351 189.2574 170.8546 14.40611183880907"}}, "geometry": {"type": "Point", "coordinates": [-141.20703267765532, -32.434926349478566]}}, {"type": "Feature", "properties": {"norad_id": 34538, "name": "IRIDIUM 33 DEB", "group": "iridium-33-debris", "lat": 31.43278769054045, "lon": 8.93132627471197, "alt_km": 734.5659855229324, "timestamp": "2025-12-10T05:46:14.211107+00:00", "meta": {"OBJECT_NAME": "IRIDIUM 33 DEB", "OBJECT_ID": "1997-051JF", "EPOCH": "2025-12-09T19:53:16.217952", "MEAN_MOTION": 14.42621939, "ECCENTRICITY": 0.0033135, "INCLINATION": 86.2771, "RA_OF_ASC_NODE": 6.8309, "ARG_OF_PERICENTER": 337.9285, "MEAN_ANOMALY": 76.1555, "EPHEMERIS_TYPE": 0, "CLASSIFICATION_TYPE": "U", "NORAD_CAT_ID": 34538, "ELEMENT_SET_NO": 999, "REV_AT_EPOCH": 87714, "BSTAR": 0.0015072, "MEAN_MOTION_DOT": 5.058e-05, "MEAN_MOTION_DDOT": 0}, "tle": {"line1": "1 34538U 97051JF  25343.82865993  .00005058  00000+0  15072-2 0  9996", "line2": "2 34538  86.2771   6.8309 0033135 337.9285  76.1555 14.42621939877141"}}, "geometry": {"type": "Point", "coordinates": [8.93132627471197, 31.43278769054045]}}, {"type": "Feature", "properties": {"norad_id": 34540, "name": "IRIDIUM 33 DEB", "group": "iridium-33-debris", "lat": 23.72327325114805, "lon": 127.12448665257266, "alt_km": 633.0603456922345, "timestamp": "2025-12-10T05:46:14.211118+00:00", "meta": {"OBJECT_NAME": "IRIDIUM 33 DEB", "OBJECT_ID": "1997-051JH", "EPOCH": "2025-12-09T21:03:31.895136", "MEAN_MOTION": 14.75221849, "ECCENTRICITY": 0.0015917, "INCLINATION": 86.3107, "RA_OF_ASC_NODE": 308.9152, "ARG_OF_PERICENTER": 169.314, "MEAN_ANOMALY": 220.3312, "EPHEMERIS_TYPE": 0, "CLASSIFICATION_TYPE": "U", "NORAD_CAT_ID": 34540, "ELEMENT_SET_NO": 999, "REV_AT_EPOCH": 88979, "BSTAR": 0.002569, "MEAN_MOTION_DOT": 0.00017451, "MEAN_MOTION_DDOT": 0}, "tle": {"line1": "1 34540U 97051JH  25343.87745249  .00017451  00000+0  25690-2 0  9992", "line2": "2 34540  86.3107 308.9152 0015917 169.3140 220.3312 14.75221849889795"}}, "geometry": {"type": "Point", "coordinates": [127.12448665257266, 23.72327325114805]}}, {"type": "Feature", "properties": {"norad_id": 34648, "name": "IRIDIUM 33 DEB", "group": "iridium-33-debris", "lat": 24.360253699336948, "lon": 101.31787148017415, "alt_km": 969.9706241446802, "timestamp": "2025-12-10T05:46:14.211128+00:00", "meta": {"OBJECT_NAME": "IRIDIUM 33 DEB", "OBJECT_ID": "1997-051JZ", "EPOCH": "2025-12-08T20:41:39.004800", "MEAN_MOTION": 14.11300262, "ECCENTRICITY": 0.01839546, "INCLINATION": 86.3913, "RA_OF_ASC_NODE": 283.5113, "ARG_OF_PERICENTER": 310.9542, "MEAN_ANOMALY": 47.5843, "EPHEMERIS_TYPE": 0, "CLASSIFICATION_TYPE": "U", "NORAD_CAT_ID": 34648, "ELEMENT_SET_NO": 999, "REV_AT_EPOCH": 84906, "BSTAR": 0.013206348, "MEAN_MOTION_DOT": 0.00028062, "MEAN_MOTION_DDOT": 0}, "tle": {"line1": "1 34648U 97051JZ  25342.86225700  .00028062  00000+0  13206-1 0  9993", "line2": "2 34648  86.3913 283.5113 0183954 310.9542  47.5843 14.11300262849062"}}, "geometry": {"type": "Point", "coordinates": [101.31787148017415, 24.360253699336948]}}, {"type": "Feature", "properties": {"norad_id": 34651, "name": "IRIDIUM 33 DEB", "group": "iridium-33-debris", "lat": 82.94109211990356, "lon": 173.28877815253202, "alt_km": 860.3053993818348, "timestamp": "2025-12-10T05:46:14.211138+00:00", "meta": {"OBJECT_NAME": "IRIDIUM 33 DEB", "OBJECT_ID": "1997-051KC", "EPOCH": "2025-12-09T17:34:37.579296", "MEAN_MOTION": 14.25734133, "ECCENTRICITY": 0.0142017, "INCLINATION": 86.2849, "RA_OF_ASC_NODE": 141.8564, "ARG_OF_PERICENTER": 213.5102, "MEAN_ANOMALY": 145.7045, "EPHEMERIS_TYPE": 0, "CLASSIFICATION_TYPE": "U", "NORAD_CAT_ID": 34651, "ELEMENT_SET_NO": 999, "REV_AT_EPOCH": 85853, "BSTAR": 0.005267, "MEAN_MOTION_DOT": 0.0001393, "MEAN_MOTION_DDOT": 0}, "tle": {"line1": "1 34651U 97051KC  25343.73237939  .00013930  00000+0  52670-2 0  9998", "line2": "2 34651  86.2849 141.8564 0142017 213.5102 145.7045 14.25734133858534"}}, "geometry": {"type": "Point", "coordinates": [173.28877815253202, 82.94109211990356]}}, {"type": "Feature", "properties": {"norad_id": 34652, "name": "IRIDIUM 33 DEB", "group": "iridium-33-debris", "lat": 9.380865439588845, "lon": 160.50688895884826, "alt_km": 701.9768836357734, "timestamp": "2025-12-10T05:46:14.211148+00:00", "meta": {"OBJECT_NAME": "IRIDIUM 33 DEB", "OBJECT_ID": "1997-051KD", "EPOCH": "2025-12-09T11:37:22.959264", "MEAN_MOTION": 14.62008914, "ECCENTRICITY": 0.00262076, "INCLINATION": 86.3314, "RA_OF_ASC_NODE": 341.4507, "ARG_OF_PERICENTER": 310.1115, "MEAN_ANOMALY": 203.3524, "EPHEMERIS_TYPE": 0, "CLASSIFICATION_TYPE": "U", "NORAD_CAT_ID": 34652, "ELEMENT_SET_NO": 999, "REV_AT_EPOCH": 88436, "BSTAR": 0.0015009226, "MEAN_MOTION_DOT": 7.584e-05, "MEAN_MOTION_DDOT": 0}, "tle": {"line1": "1 34652U 97051KD  25343.48429351  .00007584  00000+0  15009-2 0  9995", "line2": "2 34652  86.3314 341.4507 0026207 310.1115 203.3524 14.62008914884363"}}, "geometry": {"type": "Point", "coordinates": [160.50688895884826, 9.380865439588845]}}, {"type": "Feature", "properties": {"norad_id": 34690, "name": "IRIDIUM 33 DEB", "group": "iridium-33-debris", "lat": 82.88933692465987, "lon": -172.43776715636707, "alt_km": 697.6346143324408, "timestamp": "2025-12-10T05:46:14.211159+00:00", "meta": {"OBJECT_NAME": "IRIDIUM 33 DEB", "OBJECT_ID": "1997-051KM", "EPOCH": "2025-12-09T15:10:43.095936", "MEAN_MOTION": 14.55078564, "ECCENTRICITY": 0.001121, "INCLINATION": 86.378, "RA_OF_ASC_NODE": 38.3417, "ARG_OF_PERICENTER": 38.8624, "MEAN_ANOMALY": 114.3139, "EPHEMERIS_TYPE": 0, "CLASSIFICATION_TYPE": "U", "NORAD_CAT_ID": 34690, "ELEMENT_SET_NO": 999, "REV_AT_EPOCH": 88049, "BSTAR": 0.00073259, "MEAN_MOTION_DOT": 3.182e-05, "MEAN_MOTION_DDOT": 0}, "tle": {"line1": "1 34690U 97051KM  25343.63244324  .00003182  00000+0  73259-3 0  9991", "line2": "2 34690  86.3780  38.3417 0011210  38.8624 114.3139 14.55078564880494"}}, "geometry": {"type": "Point", "coordinates": [-172.43776715636707, 82.88933692465987]}}, {"type": "Feature", "properties": {"norad_id": 34693, "name": "IRIDIUM 33 DEB", "group": "iridium-33-debris", "lat": -34.09296679033728, "lon": 127.57150465301052, "alt_km": 500.59336090168927, "timestamp": "2025-12-10T05:46:14.211168+00:00", "meta": {"OBJECT_NAME": "IRIDIUM 33 DEB", "OBJECT_ID": "1997-051KQ", "EPOCH": "2025-12-09T21:06:11.394720", "MEAN_MOTION": 15.26837164, "ECCENTRICITY": 0.0014636, "INCLINATION": 86.3062, "RA_OF_ASC_NODE": 305.2443, "ARG_OF_PERICENTER": 57.3276, "MEAN_ANOMALY": 332.8894, "EPHEMERIS_TYPE": 0, "CLASSIFICATION_TYPE": "U", "NORAD_CAT_ID": 34693, "ELEMENT_SET_NO": 999, "REV_AT_EPOCH": 88871, "BSTAR": 0.0064613, "MEAN_MOTION_DOT": 0.00174516, "MEAN_MOTION_DDOT": 0}, "tle": {"line1": "1 34693U 97051KQ  25343.87929855  .00174516  00000+0  64613-2 0  9992", "line2": "2 34693  86.3062 305.2443 0014636  57.3276 332.8894 15.26837164888715"}}, "geometry": {"type": "Point", "coordinates": [127.57150465301052, -34.09296679033728]}}, {"type": "Feature", "properties": {"norad_id": 34696, "name": "IRIDIUM 33 DEB", "group": "iridium-33-debris", "lat": 34.846833901455575, "lon": -153.9781991850373, "alt_km": 630.2227091239374, "timestamp": "2025-12-10T05:46:14.211178+00:00", "meta": {"OBJECT_NAME": "IRIDIUM 33 DEB", "OBJECT_ID": "1997-051KT", "EPOCH": "2025-12-09T09:30:59.474016", "MEAN_MOTION": 14.64808482, "ECCENTRICITY": 0.00742951, "INCLINATION": 86.1845, "RA_OF_ASC_NODE": 29.0773, "ARG_OF_PERICENTER": 178.7552, "MEAN_ANOMALY": 199.1834, "EPHEMERIS_TYPE": 0, "CLASSIFICATION_TYPE": "U", "NORAD_CAT_ID": 34696, "ELEMENT_SET_NO": 999, "REV_AT_EPOCH": 86624, "BSTAR": 0.0068804754, "MEAN_MOTION_DOT": 0.00038407, "MEAN_MOTION_DDOT": 0}, "tle": {"line1": "1 34696U 97051KT  25343.39652169  .00038407  00000+0  68805-2 0  9998", "line2": "2 34696  86.1845  29.0773 0074295 178.7552 199.1834 14.64808482866248"}}, "geometry": {"type": "Point", "coordinates": [-153.9781991850373, 34.846833901455575]}}, {"type": "Feature", "properties": {"norad_id": 34765, "name": "IRIDIUM 33 DEB", "group": "iridium-33-debris", "lat": -75.79129286890247, "lon": -131.52090545795315, "alt_km": 755.6535573322972, "timestamp": "2025-12-10T05:46:14.211188+00:00", "meta": {"OBJECT_NAME": "IRIDIUM 33 DEB", "OBJECT_ID": "1997-051LJ", "EPOCH": "2025-12-09T21:03:36.020736", "MEAN_MOTION": 14.4045462, "ECCENTRICITY": 0.0015148, "INCLINATION": 86.3395, "RA_OF_ASC_NODE": 33.9898, "ARG_OF_PERICENTER": 221.4768, "MEAN_ANOMALY": 313.7613, "EPHEMERIS_TYPE": 0, "CLASSIFICATION_TYPE": "U", "NORAD_CAT_ID": 34765, "ELEMENT_SET_NO": 999, "REV_AT_EPOCH": 87572, "BSTAR": 0.0007057, "MEAN_MOTION_DOT": 2.264e-05, "MEAN_MOTION_DDOT": 0}, "tle": {"line1": "1 34765U 97051LJ  25343.87750024  .00002264  00000+0  70570-3 0  9992", "line2": "2 34765  86.3395  33.9898 0015148 221.4768 313.7613 14.40454620875723"}}, "geometry": {"type": "Point", "coordinates": [-131.52090545795315, -75.79129286890247]}}]}